{
  "type": "FeatureCollection",
  "features": [
    {
      "type": "Feature",
      "properties": {
        "norad_id": 37238,
        "name": "INTELSAT 17 (IS-17)",
        "group": "intelsat",
        "lat": 0.002057710846479616,
        "lon": -37.91003825650554,
        "alt_km": 35780.83260119456,
        "timestamp": "2025-12-12T11:38:31.083955+00:00",
        "meta_object_name": "INTELSAT 17 (IS-17)",
        "meta_object_id": "2010-065B",
        "meta_epoch": "2025-12-12T03:31:21.772128",
        "meta_mean_motion": 1.00271325,
        "meta_eccentricity": 0.0002517,
        "meta_inclination": 0.009,
        "meta_ra_of_asc_node": 303.8293,
        "meta_arg_of_pericenter": 318.5128,
        "meta_mean_anomaly": 297.6069,
        "meta_ephemeris_type": 0,
        "meta_classification_type": "U",
        "meta_norad_cat_id": 37238,
        "meta_element_set_no": 999,
        "meta_rev_at_epoch": 5137,
        "meta_bstar": 0,
        "meta_mean_motion_dot": 8e-08,
        "meta_mean_motion_ddot": 0,
        "tle_line1": "1 37238U 10065B   25346.14677977  .00000008  00000+0  00000+0 0  9999",
        "tle_line2": "2 37238   0.0090 303.8293 0002517 318.5128 297.6069  1.00271325 51371"
      },
      "geometry": {
        "type": "Point",
        "coordinates": [
          -37.91003825650554,
          0.002057710846479616
        ]
      }
    },
    {
      "type": "Feature",
      "properties": {
        "norad_id": 37392,
        "name": "INTELSAT 28 (IS-28)",
        "group": "intelsat",
        "lat": 0.846257668989735,
        "lon": -135.6518364037074,
        "alt_km": 35773.391298412906,
        "timestamp": "2025-12-12T11:38:31.083967+00:00",
        "meta_object_name": "INTELSAT 28 (IS-28)",
        "meta_object_id": "2011-016A",
        "meta_epoch": "2025-12-12T03:03:24.449184",
        "meta_mean_motion": 1.00273219,
        "meta_eccentricity": 0.0003818,
        "meta_inclination": 1.3233,
        "meta_ra_of_asc_node": 85.0571,
        "meta_arg_of_pericenter": 180.283,
        "meta_mean_anomaly": 189.9011,
        "meta_ephemeris_type": 0,
        "meta_classification_type": "U",
        "meta_norad_cat_id": 37392,
        "meta_element_set_no": 999,
        "meta_rev_at_epoch": 5141,
        "meta_bstar": 0,
        "meta_mean_motion_dot": -2.15e-06,
        "meta_mean_motion_ddot": 0,
        "tle_line1": "1 37392U 11016A   25346.12736631 -.00000215  00000+0  00000+0 0  9999",
        "tle_line2": "2 37392   1.3233  85.0571 0003818 180.2830 189.9011  1.00273219 51411"
      },
      "geometry": {
        "type": "Point",
        "coordinates": [
          -135.6518364037074,
          0.846257668989735
        ]
      }
    },
    {
      "type": "Feature",
      "properties": {
        "norad_id": 37834,
        "name": "INTELSAT 18 (IS-18)",
        "group": "intelsat",
        "lat": 0.022908568190945233,
        "lon": 76.05300574142434,
        "alt_km": 35793.94368689122,
        "timestamp": "2025-12-12T11:38:31.083978+00:00",
        "meta_object_name": "INTELSAT 18 (IS-18)",
        "meta_object_id": "2011-056A",
        "meta_epoch": "2025-12-12T02:21:06.000768",
        "meta_mean_motion": 1.00271552,
        "meta_eccentricity": 0.0001903,
        "meta_inclination": 0.0129,
        "meta_ra_of_asc_node": 298.6246,
        "meta_arg_of_pericenter": 331.1207,
        "meta_mean_anomaly": 26.5725,
        "meta_ephemeris_type": 0,
        "meta_classification_type": "U",
        "meta_norad_cat_id": 37834,
        "meta_element_set_no": 999,
        "meta_rev_at_epoch": 5193,
        "meta_bstar": 0,
        "meta_mean_motion_dot": 6.2e-07,
        "meta_mean_motion_ddot": 0,
        "tle_line1": "1 37834U 11056A   25346.09798612  .00000062  00000+0  00000+0 0  9996",
        "tle_line2": "2 37834   0.0129 298.6246 0001903 331.1207  26.5725  1.00271552 51934"
      },
      "geometry": {
        "type": "Point",
        "coordinates": [
          76.05300574142434,
          0.022908568190945233
        ]
      }
    },
    {
      "type": "Feature",
      "properties": {
        "norad_id": 38098,
        "name": "INTELSAT 22 (IS-22)",
        "group": "intelsat",
        "lat": -0.005963893948211632,
        "lon": -31.807538214129156,
        "alt_km": 35782.605888850914,
        "timestamp": "2025-12-12T11:38:31.083990+00:00",
        "meta_object_name": "INTELSAT 22 (IS-22)",
        "meta_object_id": "2012-011A",
        "meta_epoch": "2025-12-12T01:59:38.789376",
        "meta_mean_motion": 1.00271162,
        "meta_eccentricity": 0.0001739,
        "meta_inclination": 0.0016,
        "meta_ra_of_asc_node": 358.3788,
        "meta_arg_of_pericenter": 269.5928,
        "meta_mean_anomaly": 275.096,
        "meta_ephemeris_type": 0,
        "meta_classification_type": "U",
        "meta_norad_cat_id": 38098,
        "meta_element_set_no": 999,
        "meta_rev_at_epoch": 531,
        "meta_bstar": 0,
        "meta_mean_motion_dot": -5e-07,
        "meta_mean_motion_ddot": 0,
        "tle_line1": "1 38098U 12011A   25346.08308784 -.00000050  00000+0  00000+0 0  9995",
        "tle_line2": "2 38098   0.0016 358.3788 0001739 269.5928 275.0960  1.00271162  5318"
      },
      "geometry": {
        "type": "Point",
        "coordinates": [
          -31.807538214129156,
          -0.005963893948211632
        ]
      }
    },
    {
      "type": "Feature",
      "properties": {
        "norad_id": 38356,
        "name": "INTELSAT 19 (IS-19)",
        "group": "intelsat",
        "lat": 0.026055925200426103,
        "lon": 62.08291765548019,
        "alt_km": 35798.83382655474,
        "timestamp": "2025-12-12T11:38:31.084002+00:00",
        "meta_object_name": "INTELSAT 19 (IS-19)",
        "meta_object_id": "2012-030A",
        "meta_epoch": "2025-12-12T02:16:58.895904",
        "meta_mean_motion": 1.00272318,
        "meta_eccentricity": 0.0003434,
        "meta_inclination": 0.0089,
        "meta_ra_of_asc_node": 352.3615,
        "meta_arg_of_pericenter": 277.1382,
        "meta_mean_anomaly": 11.8016,
        "meta_ephemeris_type": 0,
        "meta_classification_type": "U",
        "meta_norad_cat_id": 38356,
        "meta_element_set_no": 999,
        "meta_rev_at_epoch": 4857,
        "meta_bstar": 0,
        "meta_mean_motion_dot": -4.7e-07,
        "meta_mean_motion_ddot": 0,
        "tle_line1": "1 38356U 12030A   25346.09512611 -.00000047  00000+0  00000+0 0  9996",
        "tle_line2": "2 38356   0.0089 352.3615 0003434 277.1382  11.8016  1.00272318 48578"
      },
      "geometry": {
        "type": "Point",
        "coordinates": [
          62.08291765548019,
          0.026055925200426103
        ]
      }
    },
    {
      "type": "Feature",
      "properties": {
        "norad_id": 38740,
        "name": "INTELSAT 20 (IS-20)",
        "group": "intelsat",
        "lat": -0.0001843516189579084,
        "lon": -35.41995886702969,
        "alt_km": 35795.18524630428,
        "timestamp": "2025-12-12T11:38:31.084014+00:00",
        "meta_object_name": "INTELSAT 20 (IS-20)",
        "meta_object_id": "2012-043A",
        "meta_epoch": "2025-12-11T19:58:55.649856",
        "meta_mean_motion": 1.00270334,
        "meta_eccentricity": 0.00027081,
        "meta_inclination": 0.0053,
        "meta_ra_of_asc_node": 83.8279,
        "meta_arg_of_pericenter": 100.6018,
        "meta_mean_anomaly": 264.5986,
        "meta_ephemeris_type": 0,
        "meta_classification_type": "U",
        "meta_norad_cat_id": 38740,
        "meta_element_set_no": 999,
        "meta_rev_at_epoch": 4887,
        "meta_bstar": 0,
        "meta_mean_motion_dot": -1.6e-07,
        "meta_mean_motion_ddot": 0,
        "tle_line1": "1 38740U 12043A   25345.83258854 -.00000016  00000+0  00000+0 0  9990",
        "tle_line2": "2 38740   0.0053  83.8279 0002708 100.6018 264.5986  1.00270334 48879"
      },
      "geometry": {
        "type": "Point",
        "coordinates": [
          -35.41995886702969,
          -0.0001843516189579084
        ]
      }
    },
    {
      "type": "Feature",
      "properties": {
        "norad_id": 38749,
        "name": "INTELSAT 21 (IS-21)",
        "group": "intelsat",
        "lat": 0.004351908667490332,
        "lon": -161.961386697456,
        "alt_km": 35781.980327691985,
        "timestamp": "2025-12-12T11:38:31.084026+00:00",
        "meta_object_name": "INTELSAT 21 (IS-21)",
        "meta_object_id": "2012-045A",
        "meta_epoch": "2025-12-12T02:55:55.164864",
        "meta_mean_motion": 1.00272507,
        "meta_eccentricity": 0.0001845,
        "meta_inclination": 0.0242,
        "meta_ra_of_asc_node": 65.3043,
        "meta_arg_of_pericenter": 192.4287,
        "meta_mean_anomaly": 169.3214,
        "meta_ephemeris_type": 0,
        "meta_classification_type": "U",
        "meta_norad_cat_id": 38749,
        "meta_element_set_no": 999,
        "meta_rev_at_epoch": 4864,
        "meta_bstar": 0,
        "meta_mean_motion_dot": -2.76e-06,
        "meta_mean_motion_ddot": 0,
        "tle_line1": "1 38749U 12045A   25346.12216626 -.00000276  00000+0  00000+0 0  9993",
        "tle_line2": "2 38749   0.0242  65.3043 0001845 192.4287 169.3214  1.00272507 48645"
      },
      "geometry": {
        "type": "Point",
        "coordinates": [
          -161.961386697456,
          0.004351908667490332
        ]
      }
    }
  ]
}